start=new Date('2023-06-29T00:00:00.000Z').valueOf();
sats=[{"CENTER_NAME":"EARTH","APOAPSIS":"564.944","ARG_OF_PERICENTER":"95.4068","TLE_LINE1":"1 56330U 23058P   23179.40876352 -.00000158  00000-0 -76876-5 0  9997","TLE_LINE2":"2 56330  97.6555 180.2864 0002769  95.4068 264.7473 15.01256720  9811","ECCENTRICITY":"0.00027690","LAUNCH_DATE":"2023-04-27","ELEMENT_SET_NO":"999","REV_AT_EPOCH":"981","MEAN_MOTION":"15.01256720","BSTAR":"-0.00000768760000","NORAD_CAT_ID":"56330","EPHEMERIS_TYPE":"0","TIME_SYSTEM":"UTC","FILE":"3944842","RCS_SIZE":"LARGE","PERIAPSIS":"561.100","MEAN_MOTION_DOT":"-0.00000158","INCLINATION":"97.6555","OBJECT_NAME":"STARLINK-5967","COUNTRY_CODE":"US","EPOCH":"2023-06-28T09:48:37.168128","OBJECT_TYPE":"PAYLOAD","SEMIMAJOR_AXIS":"6941.157","PERIOD":"95.920","CLASSIFICATION_TYPE":"U","GP_ID":"234602614","SITE":"AFWTR","MEAN_MOTION_DDOT":"0.0000000000000","OBJECT_ID":"2023-058P","MEAN_ANOMALY":"264.7473","MEAN_ELEMENT_THEORY":"SGP4","RA_OF_ASC_NODE":"180.2864","REF_FRAME":"TEME","DECAY_DATE":null},{"REF_FRAME":"TEME","MEAN_ELEMENT_THEORY":"SGP4","RA_OF_ASC_NODE":"179.9051","DECAY_DATE":null,"MEAN_MOTION_DDOT":"0.0000000000000","OBJECT_ID":"2023-058Q","MEAN_ANOMALY":"265.5788","GP_ID":"234597675","SITE":"AFWTR","OBJECT_TYPE":"PAYLOAD","PERIOD":"95.919","SEMIMAJOR_AXIS":"6941.142","CLASSIFICATION_TYPE":"U","MEAN_MOTION_DOT":"0.00000643","INCLINATION":"97.6542","OBJECT_NAME":"STARLINK-5991","EPOCH":"2023-06-27T23:56:44.199456","COUNTRY_CODE":"US","RCS_SIZE":"LARGE","FILE":"3944623","PERIAPSIS":"561.033","BSTAR":"0.00005466500000","MEAN_MOTION":"15.01261732","EPHEMERIS_TYPE":"0","TIME_SYSTEM":"UTC","NORAD_CAT_ID":"56331","TLE_LINE2":"2 56331  97.6542 179.9051 0002843  94.5761 265.5788 15.01261732  9754","ECCENTRICITY":"0.00028430","REV_AT_EPOCH":"975","LAUNCH_DATE":"2023-04-27","ELEMENT_SET_NO":"999","APOAPSIS":"564.980","TLE_LINE1":"1 56331U 23058Q   23178.99773379  .00000643  00000-0  54665-4 0  9994","ARG_OF_PERICENTER":"94.5761","CENTER_NAME":"EARTH"},{"MEAN_ELEMENT_THEORY":"SGP4","RA_OF_ASC_NODE":"180.4236","REF_FRAME":"TEME","DECAY_DATE":null,"GP_ID":"234607900","SITE":"AFWTR","OBJECT_ID":"2023-058R","MEAN_MOTION_DDOT":"0.0000000000000","MEAN_ANOMALY":"262.3415","OBJECT_TYPE":"PAYLOAD","PERIOD":"95.920","SEMIMAJOR_AXIS":"6941.155","CLASSIFICATION_TYPE":"U","INCLINATION":"97.6552","MEAN_MOTION_DOT":"0.00000582","OBJECT_NAME":"STARLINK-5093","COUNTRY_CODE":"US","EPOCH":"2023-06-28T12:52:55.728768","FILE":"3945066","RCS_SIZE":"LARGE","PERIAPSIS":"561.095","MEAN_MOTION":"15.01257217","BSTAR":"0.00004987500000","NORAD_CAT_ID":"56332","TIME_SYSTEM":"UTC","EPHEMERIS_TYPE":"0","ECCENTRICITY":"0.00027740","TLE_LINE2":"2 56332  97.6552 180.4236 0002774  97.8124 262.3415 15.01257217  9834","LAUNCH_DATE":"2023-04-27","ELEMENT_SET_NO":"999","REV_AT_EPOCH":"983","CENTER_NAME":"EARTH","APOAPSIS":"564.946","ARG_OF_PERICENTER":"97.8124","TLE_LINE1":"1 56332U 23058R   23179.53675612  .00000582  00000-0  49875-4 0  9996"},{"MEAN_MOTION":"15.01256773","BSTAR":"0.00009883300000","NORAD_CAT_ID":"56333","TIME_SYSTEM":"UTC","EPHEMERIS_TYPE":"0","RCS_SIZE":"LARGE","FILE":"3945067","PERIAPSIS":"561.211","CENTER_NAME":"EARTH","APOAPSIS":"564.833","TLE_LINE1":"1 56333U 23058S   23179.59576867  .00001211  00000-0  98833-4 0  9993","ARG_OF_PERICENTER":"90.1101","ECCENTRICITY":"0.00026090","TLE_LINE2":"2 56333  97.6536 180.4983 0002609  90.1101 270.0422 15.01256773  9845","LAUNCH_DATE":"2023-04-27","ELEMENT_SET_NO":"999","REV_AT_EPOCH":"984","GP_ID":"234608120","SITE":"AFWTR","OBJECT_ID":"2023-058S","MEAN_MOTION_DDOT":"0.0000000000000","MEAN_ANOMALY":"270.0422","MEAN_ELEMENT_THEORY":"SGP4","RA_OF_ASC_NODE":"180.4983","REF_FRAME":"TEME","DECAY_DATE":null,"INCLINATION":"97.6536","MEAN_MOTION_DOT":"0.00001211","OBJECT_NAME":"STARLINK-5553","COUNTRY_CODE":"US","EPOCH":"2023-06-28T14:17:54.413088","OBJECT_TYPE":"PAYLOAD","SEMIMAJOR_AXIS":"6941.157","PERIOD":"95.920","CLASSIFICATION_TYPE":"U"},{"CENTER_NAME":"EARTH","APOAPSIS":"564.966","TLE_LINE1":"1 56334U 23058T   23179.26619287  .00000713  00000-0  60082-4 0  9993","ARG_OF_PERICENTER":"94.0318","LAUNCH_DATE":"2023-04-27","ELEMENT_SET_NO":"999","REV_AT_EPOCH":"979","TLE_LINE2":"2 56334  97.6546 180.1650 0002835  94.0318 266.1230 15.01264272  9799","ECCENTRICITY":"0.00028350","NORAD_CAT_ID":"56334","EPHEMERIS_TYPE":"0","TIME_SYSTEM":"UTC","MEAN_MOTION":"15.01264272","BSTAR":"0.00006008200000","PERIAPSIS":"561.031","RCS_SIZE":"LARGE","FILE":"3944849","COUNTRY_CODE":"US","EPOCH":"2023-06-28T06:23:19.063968","INCLINATION":"97.6546","MEAN_MOTION_DOT":"0.00000713","OBJECT_NAME":"STARLINK-5548","CLASSIFICATION_TYPE":"U","OBJECT_TYPE":"PAYLOAD","PERIOD":"95.919","SEMIMAJOR_AXIS":"6941.134","GP_ID":"234603440","SITE":"AFWTR","MEAN_MOTION_DDOT":"0.0000000000000","OBJECT_ID":"2023-058T","MEAN_ANOMALY":"266.1230","DECAY_DATE":null,"MEAN_ELEMENT_THEORY":"SGP4","RA_OF_ASC_NODE":"180.1650","REF_FRAME":"TEME"},{"PERIOD":"95.920","SEMIMAJOR_AXIS":"6941.155","OBJECT_TYPE":"PAYLOAD","CLASSIFICATION_TYPE":"U","INCLINATION":"97.6531","MEAN_MOTION_DOT":"0.00000718","OBJECT_NAME":"STARLINK-5559","COUNTRY_CODE":"US","EPOCH":"2023-06-28T17:22:11.626752","RA_OF_ASC_NODE":"180.6366","MEAN_ELEMENT_THEORY":"SGP4","REF_FRAME":"TEME","DECAY_DATE":null,"SITE":"AFWTR","GP_ID":"234608246","MEAN_ANOMALY":"256.4652","MEAN_MOTION_DDOT":"0.0000000000000","OBJECT_ID":"2023-058U","ECCENTRICITY":"0.00017240","TLE_LINE2":"2 56335  97.6531 180.6366 0001724 103.6764 256.4652 15.01257446  9864","ELEMENT_SET_NO":"999","LAUNCH_DATE":"2023-04-27","REV_AT_EPOCH":"986","CENTER_NAME":"EARTH","TLE_LINE1":"1 56335U 23058U   23179.72374568  .00000718  00000-0  60509-4 0  9994","ARG_OF_PERICENTER":"103.6764","APOAPSIS":"564.216","RCS_SIZE":"LARGE","FILE":"3945104","PERIAPSIS":"561.823","MEAN_MOTION":"15.01257446","BSTAR":"0.00006050900000","NORAD_CAT_ID":"56335","EPHEMERIS_TYPE":"0","TIME_SYSTEM":"UTC"},{"INCLINATION":"97.6544","MEAN_MOTION_DOT":"0.00005852","OBJECT_NAME":"STARLINK-5562","COUNTRY_CODE":"US","EPOCH":"2023-06-28T14:20:51.461376","PERIOD":"95.917","SEMIMAJOR_AXIS":"6941.052","OBJECT_TYPE":"PAYLOAD","CLASSIFICATION_TYPE":"U","SITE":"AFWTR","GP_ID":"234608756","MEAN_ANOMALY":"258.4392","OBJECT_ID":"2023-058V","MEAN_MOTION_DDOT":"0.0000000000000","RA_OF_ASC_NODE":"180.4958","MEAN_ELEMENT_THEORY":"SGP4","REF_FRAME":"TEME","DECAY_DATE":null,"CENTER_NAME":"EARTH","TLE_LINE1":"1 56336U 23058V   23179.59781784  .00005852  00000-0  45942-3 0  9999","ARG_OF_PERICENTER":"101.7029","APOAPSIS":"564.133","TLE_LINE2":"2 56336  97.6544 180.4958 0001752 101.7029 258.4392 15.01290650  9843","ECCENTRICITY":"0.00017520","ELEMENT_SET_NO":"999","LAUNCH_DATE":"2023-04-27","REV_AT_EPOCH":"984","MEAN_MOTION":"15.01290650","BSTAR":"0.00045942000000","NORAD_CAT_ID":"56336","TIME_SYSTEM":"UTC","EPHEMERIS_TYPE":"0","FILE":"3945078","RCS_SIZE":"LARGE","PERIAPSIS":"561.701"},{"MEAN_MOTION_DOT":"0.00000456","OBJECT_NAME":"STARLINK-5561","INCLINATION":"97.6530","EPOCH":"2023-06-28T17:21:50.578848","COUNTRY_CODE":"US","OBJECT_TYPE":"PAYLOAD","PERIOD":"95.919","SEMIMAJOR_AXIS":"6941.147","CLASSIFICATION_TYPE":"U","MEAN_MOTION_DDOT":"0.0000000000000","OBJECT_ID":"2023-058W","MEAN_ANOMALY":"252.8623","GP_ID":"234608987","SITE":"AFWTR","REF_FRAME":"TEME","MEAN_ELEMENT_THEORY":"SGP4","RA_OF_ASC_NODE":"180.6369","DECAY_DATE":null,"APOAPSIS":"564.037","TLE_LINE1":"1 56337U 23058W   23179.72350207  .00000456  00000-0  40091-4 0  9993","ARG_OF_PERICENTER":"107.2762","CENTER_NAME":"EARTH","TLE_LINE2":"2 56337  97.6530 180.6369 0001476 107.2762 252.8623 15.01259951  9861","ECCENTRICITY":"0.00014760","REV_AT_EPOCH":"986","LAUNCH_DATE":"2023-04-27","ELEMENT_SET_NO":"999","BSTAR":"0.00004009100000","MEAN_MOTION":"15.01259951","TIME_SYSTEM":"UTC","EPHEMERIS_TYPE":"0","NORAD_CAT_ID":"56337","FILE":"3945092","RCS_SIZE":"LARGE","PERIAPSIS":"561.987"},{"PERIAPSIS":"561.800","RCS_SIZE":"LARGE","FILE":"3944689","NORAD_CAT_ID":"56338","TIME_SYSTEM":"UTC","EPHEMERIS_TYPE":"0","MEAN_MOTION":"15.01260496","BSTAR":"0.00003671400000","ELEMENT_SET_NO":"999","LAUNCH_DATE":"2023-04-27","REV_AT_EPOCH":"975","TLE_LINE2":"2 56338  97.6538 179.9095 0001744 107.4083 252.7332 15.01260496  9753","ECCENTRICITY":"0.00017440","CENTER_NAME":"EARTH","APOAPSIS":"564.221","TLE_LINE1":"1 56338U 23058X   23178.99402790  .00000413  00000-0  36714-4 0  9997","ARG_OF_PERICENTER":"107.4083","DECAY_DATE":null,"MEAN_ELEMENT_THEORY":"SGP4","RA_OF_ASC_NODE":"179.9095","REF_FRAME":"TEME","GP_ID":"234599024","SITE":"AFWTR","OBJECT_ID":"2023-058X","MEAN_MOTION_DDOT":"0.0000000000000","MEAN_ANOMALY":"252.7332","CLASSIFICATION_TYPE":"U","OBJECT_TYPE":"PAYLOAD","SEMIMAJOR_AXIS":"6941.145","PERIOD":"95.919","COUNTRY_CODE":"US","EPOCH":"2023-06-27T23:51:24.010560","MEAN_MOTION_DOT":"0.00000413","INCLINATION":"97.6538","OBJECT_NAME":"STARLINK-5554"},{"COUNTRY_CODE":"US","EPOCH":"2023-06-27T23:40:43.914432","OBJECT_NAME":"STARLINK-5552","MEAN_MOTION_DOT":"0.00000379","INCLINATION":"97.6525","CLASSIFICATION_TYPE":"U","OBJECT_TYPE":"PAYLOAD","PERIOD":"95.919","SEMIMAJOR_AXIS":"6941.143","GP_ID":"234596612","SITE":"AFWTR","MEAN_MOTION_DDOT":"0.0000000000000","OBJECT_ID":"2023-058Y","MEAN_ANOMALY":"254.2824","DECAY_DATE":null,"MEAN_ELEMENT_THEORY":"SGP4","RA_OF_ASC_NODE":"179.9185","REF_FRAME":"TEME","CENTER_NAME":"EARTH","APOAPSIS":"564.038","ARG_OF_PERICENTER":"105.8564","TLE_LINE1":"1 56339U 23058Y   23178.98661938  .00000379  00000-0  34097-4 0  9991","ELEMENT_SET_NO":"999","LAUNCH_DATE":"2023-04-27","REV_AT_EPOCH":"975","TLE_LINE2":"2 56339  97.6525 179.9185 0001483 105.8564 254.2824 15.01261196  9757","ECCENTRICITY":"0.00014830","NORAD_CAT_ID":"56339","TIME_SYSTEM":"UTC","EPHEMERIS_TYPE":"0","MEAN_MOTION":"15.01261196","BSTAR":"0.00003409700000","PERIAPSIS":"561.979","RCS_SIZE":"LARGE","FILE":"3944599"}];
